<?xml version="1.0" encoding="UTF-8"?>
<gpx version="1.1" creator="SensoryDataMaps sample" xmlns="http://www.topografix.com/GPX/1/1">
  <metadata><name>Example smell/sound walk</name></metadata>
  <trk>
    <name>Example walk</name>
    <trkseg>
      <trkpt lat="55.605034" lon="13.003848"><ele>12.0</ele><time>2026-09-25T10:00:00.000Z</time></trkpt>
      <trkpt lat="55.605062" lon="13.003885"><ele>12.1</ele><time>2026-09-25T10:00:01.000Z</time></trkpt>
      <trkpt lat="55.605089" lon="13.003930"><ele>12.3</ele><time>2026-09-25T10:00:02.000Z</time></trkpt>
      <trkpt lat="55.605121" lon="13.003972"><ele>12.4</ele><time>2026-09-25T10:00:03.000Z</time></trkpt>
      <trkpt lat="55.605156" lon="13.004007"><ele>12.6</ele><time>2026-09-25T10:00:04.000Z</time></trkpt>
      <trkpt lat="55.605188" lon="13.004053"><ele>12.7</ele><time>2026-09-25T10:00:05.000Z</time></trkpt>
      <trkpt lat="55.605216" lon="13.004096"><ele>12.9</ele><time>2026-09-25T10:00:06.000Z</time></trkpt>
      <trkpt lat="55.605256" lon="13.004132"><ele>13.0</ele><time>2026-09-25T10:00:07.000Z</time></trkpt>
      <trkpt lat="55.605276" lon="13.004180"><ele>13.2</ele><time>2026-09-25T10:00:08.000Z</time></trkpt>
      <trkpt lat="55.605298" lon="13.004220"><ele>13.3</ele><time>2026-09-25T10:00:09.000Z</time></trkpt>
      <trkpt lat="55.605324" lon="13.004263"><ele>13.4</ele><time>2026-09-25T10:00:10.000Z</time></trkpt>
      <trkpt lat="55.605346" lon="13.004301"><ele>13.6</ele><time>2026-09-25T10:00:11.000Z</time></trkpt>
      <trkpt lat="55.605372" lon="13.004339"><ele>13.7</ele><time>2026-09-25T10:00:12.000Z</time></trkpt>
      <trkpt lat="55.605397" lon="13.004387"><ele>13.8</ele><time>2026-09-25T10:00:13.000Z</time></trkpt>
      <trkpt lat="55.605426" lon="13.004430"><ele>13.9</ele><time>2026-09-25T10:00:14.000Z</time></trkpt>
      <trkpt lat="55.605457" lon="13.004471"><ele>14.0</ele><time>2026-09-25T10:00:15.000Z</time></trkpt>
      <trkpt lat="55.605493" lon="13.004505"><ele>14.2</ele><time>2026-09-25T10:00:16.000Z</time></trkpt>
      <trkpt lat="55.605522" lon="13.004551"><ele>14.3</ele><time>2026-09-25T10:00:17.000Z</time></trkpt>
      <trkpt lat="55.605557" lon="13.004599"><ele>14.3</ele><time>2026-09-25T10:00:18.000Z</time></trkpt>
      <trkpt lat="55.605584" lon="13.004632"><ele>14.4</ele><time>2026-09-25T10:00:19.000Z</time></trkpt>
      <trkpt lat="55.605616" lon="13.004667"><ele>14.5</ele><time>2026-09-25T10:00:20.000Z</time></trkpt>
      <trkpt lat="55.605641" lon="13.004705"><ele>14.6</ele><time>2026-09-25T10:00:21.000Z</time></trkpt>
      <trkpt lat="55.605662" lon="13.004751"><ele>14.7</ele><time>2026-09-25T10:00:22.000Z</time></trkpt>
      <trkpt lat="55.605701" lon="13.004787"><ele>14.7</ele><time>2026-09-25T10:00:23.000Z</time></trkpt>
      <trkpt lat="55.605736" lon="13.004828"><ele>14.8</ele><time>2026-09-25T10:00:24.000Z</time></trkpt>
      <trkpt lat="55.605761" lon="13.004866"><ele>14.8</ele><time>2026-09-25T10:00:25.000Z</time></trkpt>
      <trkpt lat="55.605784" lon="13.004915"><ele>14.9</ele><time>2026-09-25T10:00:26.000Z</time></trkpt>
      <trkpt lat="55.605820" lon="13.004956"><ele>14.9</ele><time>2026-09-25T10:00:27.000Z</time></trkpt>
      <trkpt lat="55.605842" lon="13.004990"><ele>15.0</ele><time>2026-09-25T10:00:28.000Z</time></trkpt>
      <trkpt lat="55.605867" lon="13.005030"><ele>15.0</ele><time>2026-09-25T10:00:29.000Z</time></trkpt>
      <trkpt lat="55.605905" lon="13.005077"><ele>15.0</ele><time>2026-09-25T10:00:30.000Z</time></trkpt>
      <trkpt lat="55.605937" lon="13.005126"><ele>15.0</ele><time>2026-09-25T10:00:31.000Z</time></trkpt>
      <trkpt lat="55.605974" lon="13.005167"><ele>15.0</ele><time>2026-09-25T10:00:32.000Z</time></trkpt>
      <trkpt lat="55.606002" lon="13.005214"><ele>15.0</ele><time>2026-09-25T10:00:33.000Z</time></trkpt>
      <trkpt lat="55.606034" lon="13.005257"><ele>15.0</ele><time>2026-09-25T10:00:34.000Z</time></trkpt>
      <trkpt lat="55.606070" lon="13.005302"><ele>15.0</ele><time>2026-09-25T10:00:35.000Z</time></trkpt>
      <trkpt lat="55.606099" lon="13.005338"><ele>14.9</ele><time>2026-09-25T10:00:36.000Z</time></trkpt>
      <trkpt lat="55.606119" lon="13.005372"><ele>14.9</ele><time>2026-09-25T10:00:37.000Z</time></trkpt>
      <trkpt lat="55.606146" lon="13.005406"><ele>14.8</ele><time>2026-09-25T10:00:38.000Z</time></trkpt>
      <trkpt lat="55.606179" lon="13.005449"><ele>14.8</ele><time>2026-09-25T10:00:39.000Z</time></trkpt>
      <trkpt lat="55.606203" lon="13.005494"><ele>14.7</ele><time>2026-09-25T10:00:40.000Z</time></trkpt>
      <trkpt lat="55.606231" lon="13.005541"><ele>14.7</ele><time>2026-09-25T10:00:41.000Z</time></trkpt>
      <trkpt lat="55.606263" lon="13.005580"><ele>14.6</ele><time>2026-09-25T10:00:42.000Z</time></trkpt>
      <trkpt lat="55.606288" lon="13.005617"><ele>14.5</ele><time>2026-09-25T10:00:43.000Z</time></trkpt>
      <trkpt lat="55.606318" lon="13.005662"><ele>14.4</ele><time>2026-09-25T10:00:44.000Z</time></trkpt>
      <trkpt lat="55.606343" lon="13.005705"><ele>14.3</ele><time>2026-09-25T10:00:45.000Z</time></trkpt>
      <trkpt lat="55.606383" lon="13.005743"><ele>14.2</ele><time>2026-09-25T10:00:46.000Z</time></trkpt>
      <trkpt lat="55.606411" lon="13.005777"><ele>14.1</ele><time>2026-09-25T10:00:47.000Z</time></trkpt>
      <trkpt lat="55.606449" lon="13.005814"><ele>14.0</ele><time>2026-09-25T10:00:48.000Z</time></trkpt>
      <trkpt lat="55.606481" lon="13.005862"><ele>13.9</ele><time>2026-09-25T10:00:49.000Z</time></trkpt>
      <trkpt lat="55.606519" lon="13.005912"><ele>13.8</ele><time>2026-09-25T10:00:50.000Z</time></trkpt>
      <trkpt lat="55.606541" lon="13.005957"><ele>13.7</ele><time>2026-09-25T10:00:51.000Z</time></trkpt>
      <trkpt lat="55.606577" lon="13.005996"><ele>13.5</ele><time>2026-09-25T10:00:52.000Z</time></trkpt>
      <trkpt lat="55.606611" lon="13.006040"><ele>13.4</ele><time>2026-09-25T10:00:53.000Z</time></trkpt>
      <trkpt lat="55.606644" lon="13.006080"><ele>13.3</ele><time>2026-09-25T10:00:54.000Z</time></trkpt>
      <trkpt lat="55.606676" lon="13.006117"><ele>13.1</ele><time>2026-09-25T10:00:55.000Z</time></trkpt>
      <trkpt lat="55.606711" lon="13.006163"><ele>13.0</ele><time>2026-09-25T10:00:56.000Z</time></trkpt>
      <trkpt lat="55.606740" lon="13.006197"><ele>12.9</ele><time>2026-09-25T10:00:57.000Z</time></trkpt>
      <trkpt lat="55.606762" lon="13.006237"><ele>12.7</ele><time>2026-09-25T10:00:58.000Z</time></trkpt>
      <trkpt lat="55.606789" lon="13.006276"><ele>12.6</ele><time>2026-09-25T10:00:59.000Z</time></trkpt>
      <trkpt lat="55.606812" lon="13.006306"><ele>12.4</ele><time>2026-09-25T10:01:00.000Z</time></trkpt>
      <trkpt lat="55.606844" lon="13.006346"><ele>12.3</ele><time>2026-09-25T10:01:01.000Z</time></trkpt>
      <trkpt lat="55.606873" lon="13.006390"><ele>12.1</ele><time>2026-09-25T10:01:02.000Z</time></trkpt>
      <trkpt lat="55.606893" lon="13.006422"><ele>12.0</ele><time>2026-09-25T10:01:03.000Z</time></trkpt>
      <trkpt lat="55.606920" lon="13.006459"><ele>11.8</ele><time>2026-09-25T10:01:04.000Z</time></trkpt>
      <trkpt lat="55.606954" lon="13.006497"><ele>11.7</ele><time>2026-09-25T10:01:05.000Z</time></trkpt>
      <trkpt lat="55.606980" lon="13.006538"><ele>11.5</ele><time>2026-09-25T10:01:06.000Z</time></trkpt>
      <trkpt lat="55.607003" lon="13.006578"><ele>11.4</ele><time>2026-09-25T10:01:07.000Z</time></trkpt>
      <trkpt lat="55.607040" lon="13.006616"><ele>11.2</ele><time>2026-09-25T10:01:08.000Z</time></trkpt>
      <trkpt lat="55.607076" lon="13.006660"><ele>11.1</ele><time>2026-09-25T10:01:09.000Z</time></trkpt>
      <trkpt lat="55.607113" lon="13.006708"><ele>10.9</ele><time>2026-09-25T10:01:10.000Z</time></trkpt>
      <trkpt lat="55.607139" lon="13.006753"><ele>10.8</ele><time>2026-09-25T10:01:11.000Z</time></trkpt>
      <trkpt lat="55.607164" lon="13.006796"><ele>10.7</ele><time>2026-09-25T10:01:12.000Z</time></trkpt>
      <trkpt lat="55.607197" lon="13.006826"><ele>10.5</ele><time>2026-09-25T10:01:13.000Z</time></trkpt>
      <trkpt lat="55.607217" lon="13.006873"><ele>10.4</ele><time>2026-09-25T10:01:14.000Z</time></trkpt>
      <trkpt lat="55.607253" lon="13.006917"><ele>10.3</ele><time>2026-09-25T10:01:15.000Z</time></trkpt>
      <trkpt lat="55.607284" lon="13.006949"><ele>10.2</ele><time>2026-09-25T10:01:16.000Z</time></trkpt>
      <trkpt lat="55.607305" lon="13.006984"><ele>10.0</ele><time>2026-09-25T10:01:17.000Z</time></trkpt>
      <trkpt lat="55.607334" lon="13.007024"><ele>9.9</ele><time>2026-09-25T10:01:18.000Z</time></trkpt>
      <trkpt lat="55.607365" lon="13.007065"><ele>9.8</ele><time>2026-09-25T10:01:19.000Z</time></trkpt>
      <trkpt lat="55.607394" lon="13.007097"><ele>9.7</ele><time>2026-09-25T10:01:20.000Z</time></trkpt>
      <trkpt lat="55.607417" lon="13.007139"><ele>9.6</ele><time>2026-09-25T10:01:21.000Z</time></trkpt>
      <trkpt lat="55.607455" lon="13.007184"><ele>9.5</ele><time>2026-09-25T10:01:22.000Z</time></trkpt>
      <trkpt lat="55.607495" lon="13.007234"><ele>9.5</ele><time>2026-09-25T10:01:23.000Z</time></trkpt>
      <trkpt lat="55.607527" lon="13.007269"><ele>9.4</ele><time>2026-09-25T10:01:24.000Z</time></trkpt>
      <trkpt lat="55.607563" lon="13.007311"><ele>9.3</ele><time>2026-09-25T10:01:25.000Z</time></trkpt>
      <trkpt lat="55.607589" lon="13.007353"><ele>9.3</ele><time>2026-09-25T10:01:26.000Z</time></trkpt>
      <trkpt lat="55.607615" lon="13.007387"><ele>9.2</ele><time>2026-09-25T10:01:27.000Z</time></trkpt>
      <trkpt lat="55.607639" lon="13.007420"><ele>9.1</ele><time>2026-09-25T10:01:28.000Z</time></trkpt>
      <trkpt lat="55.607668" lon="13.007468"><ele>9.1</ele><time>2026-09-25T10:01:29.000Z</time></trkpt>
      <trkpt lat="55.607702" lon="13.007509"><ele>9.1</ele><time>2026-09-25T10:01:30.000Z</time></trkpt>
      <trkpt lat="55.607726" lon="13.007551"><ele>9.0</ele><time>2026-09-25T10:01:31.000Z</time></trkpt>
      <trkpt lat="55.607758" lon="13.007595"><ele>9.0</ele><time>2026-09-25T10:01:32.000Z</time></trkpt>
      <trkpt lat="55.607795" lon="13.007637"><ele>9.0</ele><time>2026-09-25T10:01:33.000Z</time></trkpt>
      <trkpt lat="55.607829" lon="13.007676"><ele>9.0</ele><time>2026-09-25T10:01:34.000Z</time></trkpt>
      <trkpt lat="55.607857" lon="13.007725"><ele>9.0</ele><time>2026-09-25T10:01:35.000Z</time></trkpt>
      <trkpt lat="55.607888" lon="13.007771"><ele>9.0</ele><time>2026-09-25T10:01:36.000Z</time></trkpt>
      <trkpt lat="55.607919" lon="13.007814"><ele>9.0</ele><time>2026-09-25T10:01:37.000Z</time></trkpt>
      <trkpt lat="55.607941" lon="13.007853"><ele>9.1</ele><time>2026-09-25T10:01:38.000Z</time></trkpt>
      <trkpt lat="55.607981" lon="13.007898"><ele>9.1</ele><time>2026-09-25T10:01:39.000Z</time></trkpt>
      <trkpt lat="55.608014" lon="13.007945"><ele>9.1</ele><time>2026-09-25T10:01:40.000Z</time></trkpt>
      <trkpt lat="55.608049" lon="13.007981"><ele>9.2</ele><time>2026-09-25T10:01:41.000Z</time></trkpt>
      <trkpt lat="55.608076" lon="13.008021"><ele>9.2</ele><time>2026-09-25T10:01:42.000Z</time></trkpt>
      <trkpt lat="55.608099" lon="13.008064"><ele>9.3</ele><time>2026-09-25T10:01:43.000Z</time></trkpt>
      <trkpt lat="55.608133" lon="13.008106"><ele>9.3</ele><time>2026-09-25T10:01:44.000Z</time></trkpt>
      <trkpt lat="55.608165" lon="13.008139"><ele>9.4</ele><time>2026-09-25T10:01:45.000Z</time></trkpt>
      <trkpt lat="55.608196" lon="13.008187"><ele>9.5</ele><time>2026-09-25T10:01:46.000Z</time></trkpt>
      <trkpt lat="55.608228" lon="13.008232"><ele>9.6</ele><time>2026-09-25T10:01:47.000Z</time></trkpt>
      <trkpt lat="55.608249" lon="13.008264"><ele>9.7</ele><time>2026-09-25T10:01:48.000Z</time></trkpt>
      <trkpt lat="55.608272" lon="13.008311"><ele>9.8</ele><time>2026-09-25T10:01:49.000Z</time></trkpt>
      <trkpt lat="55.608302" lon="13.008345"><ele>9.9</ele><time>2026-09-25T10:01:50.000Z</time></trkpt>
      <trkpt lat="55.608324" lon="13.008386"><ele>10.0</ele><time>2026-09-25T10:01:51.000Z</time></trkpt>
      <trkpt lat="55.608354" lon="13.008417"><ele>10.1</ele><time>2026-09-25T10:01:52.000Z</time></trkpt>
      <trkpt lat="55.608387" lon="13.008464"><ele>10.2</ele><time>2026-09-25T10:01:53.000Z</time></trkpt>
      <trkpt lat="55.608415" lon="13.008509"><ele>10.3</ele><time>2026-09-25T10:01:54.000Z</time></trkpt>
      <trkpt lat="55.608439" lon="13.008551"><ele>10.5</ele><time>2026-09-25T10:01:55.000Z</time></trkpt>
      <trkpt lat="55.608466" lon="13.008591"><ele>10.6</ele><time>2026-09-25T10:01:56.000Z</time></trkpt>
      <trkpt lat="55.608488" lon="13.008627"><ele>10.7</ele><time>2026-09-25T10:01:57.000Z</time></trkpt>
      <trkpt lat="55.608513" lon="13.008670"><ele>10.9</ele><time>2026-09-25T10:01:58.000Z</time></trkpt>
      <trkpt lat="55.608550" lon="13.008707"><ele>11.0</ele><time>2026-09-25T10:01:59.000Z</time></trkpt>
      <trkpt lat="55.608579" lon="13.008741"><ele>11.2</ele><time>2026-09-25T10:02:00.000Z</time></trkpt>
      <trkpt lat="55.608605" lon="13.008785"><ele>11.3</ele><time>2026-09-25T10:02:01.000Z</time></trkpt>
      <trkpt lat="55.608630" lon="13.008819"><ele>11.5</ele><time>2026-09-25T10:02:02.000Z</time></trkpt>
      <trkpt lat="55.608658" lon="13.008856"><ele>11.6</ele><time>2026-09-25T10:02:03.000Z</time></trkpt>
      <trkpt lat="55.608680" lon="13.008900"><ele>11.8</ele><time>2026-09-25T10:02:04.000Z</time></trkpt>
      <trkpt lat="55.608714" lon="13.008939"><ele>11.9</ele><time>2026-09-25T10:02:05.000Z</time></trkpt>
      <trkpt lat="55.608753" lon="13.008978"><ele>12.1</ele><time>2026-09-25T10:02:06.000Z</time></trkpt>
      <trkpt lat="55.608785" lon="13.009021"><ele>12.2</ele><time>2026-09-25T10:02:07.000Z</time></trkpt>
      <trkpt lat="55.608816" lon="13.009056"><ele>12.3</ele><time>2026-09-25T10:02:08.000Z</time></trkpt>
      <trkpt lat="55.608855" lon="13.009096"><ele>12.5</ele><time>2026-09-25T10:02:09.000Z</time></trkpt>
      <trkpt lat="55.608877" lon="13.009143"><ele>12.6</ele><time>2026-09-25T10:02:10.000Z</time></trkpt>
      <trkpt lat="55.608897" lon="13.009184"><ele>12.8</ele><time>2026-09-25T10:02:11.000Z</time></trkpt>
      <trkpt lat="55.608926" lon="13.009215"><ele>12.9</ele><time>2026-09-25T10:02:12.000Z</time></trkpt>
      <trkpt lat="55.608959" lon="13.009253"><ele>13.1</ele><time>2026-09-25T10:02:13.000Z</time></trkpt>
      <trkpt lat="55.608983" lon="13.009293"><ele>13.2</ele><time>2026-09-25T10:02:14.000Z</time></trkpt>
      <trkpt lat="55.609018" lon="13.009337"><ele>13.4</ele><time>2026-09-25T10:02:15.000Z</time></trkpt>
      <trkpt lat="55.609057" lon="13.009368"><ele>13.5</ele><time>2026-09-25T10:02:16.000Z</time></trkpt>
      <trkpt lat="55.609094" lon="13.009416"><ele>13.6</ele><time>2026-09-25T10:02:17.000Z</time></trkpt>
      <trkpt lat="55.609128" lon="13.009462"><ele>13.7</ele><time>2026-09-25T10:02:18.000Z</time></trkpt>
      <trkpt lat="55.609158" lon="13.009507"><ele>13.9</ele><time>2026-09-25T10:02:19.000Z</time></trkpt>
      <trkpt lat="55.609186" lon="13.009540"><ele>14.0</ele><time>2026-09-25T10:02:20.000Z</time></trkpt>
      <trkpt lat="55.609206" lon="13.009576"><ele>14.1</ele><time>2026-09-25T10:02:21.000Z</time></trkpt>
      <trkpt lat="55.609244" lon="13.009625"><ele>14.2</ele><time>2026-09-25T10:02:22.000Z</time></trkpt>
      <trkpt lat="55.609265" lon="13.009666"><ele>14.3</ele><time>2026-09-25T10:02:23.000Z</time></trkpt>
      <trkpt lat="55.609288" lon="13.009697"><ele>14.4</ele><time>2026-09-25T10:02:24.000Z</time></trkpt>
      <trkpt lat="55.609315" lon="13.009729"><ele>14.5</ele><time>2026-09-25T10:02:25.000Z</time></trkpt>
      <trkpt lat="55.609345" lon="13.009763"><ele>14.6</ele><time>2026-09-25T10:02:26.000Z</time></trkpt>
      <trkpt lat="55.609380" lon="13.009794"><ele>14.6</ele><time>2026-09-25T10:02:27.000Z</time></trkpt>
      <trkpt lat="55.609405" lon="13.009832"><ele>14.7</ele><time>2026-09-25T10:02:28.000Z</time></trkpt>
      <trkpt lat="55.609428" lon="13.009877"><ele>14.8</ele><time>2026-09-25T10:02:29.000Z</time></trkpt>
      <trkpt lat="55.609464" lon="13.009908"><ele>14.8</ele><time>2026-09-25T10:02:30.000Z</time></trkpt>
      <trkpt lat="55.609499" lon="13.009958"><ele>14.9</ele><time>2026-09-25T10:02:31.000Z</time></trkpt>
      <trkpt lat="55.609538" lon="13.009990"><ele>14.9</ele><time>2026-09-25T10:02:32.000Z</time></trkpt>
      <trkpt lat="55.609564" lon="13.010040"><ele>14.9</ele><time>2026-09-25T10:02:33.000Z</time></trkpt>
      <trkpt lat="55.609599" lon="13.010081"><ele>15.0</ele><time>2026-09-25T10:02:34.000Z</time></trkpt>
      <trkpt lat="55.609624" lon="13.010114"><ele>15.0</ele><time>2026-09-25T10:02:35.000Z</time></trkpt>
      <trkpt lat="55.609651" lon="13.010164"><ele>15.0</ele><time>2026-09-25T10:02:36.000Z</time></trkpt>
      <trkpt lat="55.609687" lon="13.010209"><ele>15.0</ele><time>2026-09-25T10:02:37.000Z</time></trkpt>
      <trkpt lat="55.609715" lon="13.010242"><ele>15.0</ele><time>2026-09-25T10:02:38.000Z</time></trkpt>
      <trkpt lat="55.609753" lon="13.010289"><ele>15.0</ele><time>2026-09-25T10:02:39.000Z</time></trkpt>
      <trkpt lat="55.609784" lon="13.010326"><ele>15.0</ele><time>2026-09-25T10:02:40.000Z</time></trkpt>
      <trkpt lat="55.609820" lon="13.010374"><ele>14.9</ele><time>2026-09-25T10:02:41.000Z</time></trkpt>
      <trkpt lat="55.609843" lon="13.010414"><ele>14.9</ele><time>2026-09-25T10:02:42.000Z</time></trkpt>
      <trkpt lat="55.609863" lon="13.010457"><ele>14.9</ele><time>2026-09-25T10:02:43.000Z</time></trkpt>
      <trkpt lat="55.609894" lon="13.010507"><ele>14.8</ele><time>2026-09-25T10:02:44.000Z</time></trkpt>
      <trkpt lat="55.609928" lon="13.010554"><ele>14.8</ele><time>2026-09-25T10:02:45.000Z</time></trkpt>
      <trkpt lat="55.609957" lon="13.010598"><ele>14.7</ele><time>2026-09-25T10:02:46.000Z</time></trkpt>
      <trkpt lat="55.609980" lon="13.010643"><ele>14.6</ele><time>2026-09-25T10:02:47.000Z</time></trkpt>
      <trkpt lat="55.610009" lon="13.010690"><ele>14.6</ele><time>2026-09-25T10:02:48.000Z</time></trkpt>
      <trkpt lat="55.610040" lon="13.010728"><ele>14.5</ele><time>2026-09-25T10:02:49.000Z</time></trkpt>
      <trkpt lat="55.610075" lon="13.010771"><ele>14.4</ele><time>2026-09-25T10:02:50.000Z</time></trkpt>
      <trkpt lat="55.610108" lon="13.010802"><ele>14.3</ele><time>2026-09-25T10:02:51.000Z</time></trkpt>
      <trkpt lat="55.610138" lon="13.010837"><ele>14.2</ele><time>2026-09-25T10:02:52.000Z</time></trkpt>
      <trkpt lat="55.610165" lon="13.010874"><ele>14.1</ele><time>2026-09-25T10:02:53.000Z</time></trkpt>
      <trkpt lat="55.610193" lon="13.010911"><ele>14.0</ele><time>2026-09-25T10:02:54.000Z</time></trkpt>
      <trkpt lat="55.610226" lon="13.010956"><ele>13.9</ele><time>2026-09-25T10:02:55.000Z</time></trkpt>
      <trkpt lat="55.610260" lon="13.011003"><ele>13.8</ele><time>2026-09-25T10:02:56.000Z</time></trkpt>
      <trkpt lat="55.610281" lon="13.011044"><ele>13.6</ele><time>2026-09-25T10:02:57.000Z</time></trkpt>
      <trkpt lat="55.610312" lon="13.011077"><ele>13.5</ele><time>2026-09-25T10:02:58.000Z</time></trkpt>
      <trkpt lat="55.610339" lon="13.011109"><ele>13.4</ele><time>2026-09-25T10:02:59.000Z</time></trkpt>
      <trkpt lat="55.610361" lon="13.011143"><ele>13.2</ele><time>2026-09-25T10:03:00.000Z</time></trkpt>
      <trkpt lat="55.610392" lon="13.011179"><ele>13.1</ele><time>2026-09-25T10:03:01.000Z</time></trkpt>
      <trkpt lat="55.610431" lon="13.011221"><ele>13.0</ele><time>2026-09-25T10:03:02.000Z</time></trkpt>
      <trkpt lat="55.610465" lon="13.011255"><ele>12.8</ele><time>2026-09-25T10:03:03.000Z</time></trkpt>
      <trkpt lat="55.610493" lon="13.011293"><ele>12.7</ele><time>2026-09-25T10:03:04.000Z</time></trkpt>
      <trkpt lat="55.610527" lon="13.011327"><ele>12.5</ele><time>2026-09-25T10:03:05.000Z</time></trkpt>
      <trkpt lat="55.610552" lon="13.011363"><ele>12.4</ele><time>2026-09-25T10:03:06.000Z</time></trkpt>
      <trkpt lat="55.610592" lon="13.011404"><ele>12.2</ele><time>2026-09-25T10:03:07.000Z</time></trkpt>
      <trkpt lat="55.610618" lon="13.011438"><ele>12.1</ele><time>2026-09-25T10:03:08.000Z</time></trkpt>
      <trkpt lat="55.610645" lon="13.011487"><ele>11.9</ele><time>2026-09-25T10:03:09.000Z</time></trkpt>
      <trkpt lat="55.610669" lon="13.011531"><ele>11.8</ele><time>2026-09-25T10:03:10.000Z</time></trkpt>
      <trkpt lat="55.610708" lon="13.011570"><ele>11.6</ele><time>2026-09-25T10:03:11.000Z</time></trkpt>
      <trkpt lat="55.610741" lon="13.011601"><ele>11.5</ele><time>2026-09-25T10:03:12.000Z</time></trkpt>
      <trkpt lat="55.610772" lon="13.011644"><ele>11.3</ele><time>2026-09-25T10:03:13.000Z</time></trkpt>
      <trkpt lat="55.610804" lon="13.011685"><ele>11.2</ele><time>2026-09-25T10:03:14.000Z</time></trkpt>
      <trkpt lat="55.610841" lon="13.011725"><ele>11.0</ele><time>2026-09-25T10:03:15.000Z</time></trkpt>
      <trkpt lat="55.610876" lon="13.011759"><ele>10.9</ele><time>2026-09-25T10:03:16.000Z</time></trkpt>
      <trkpt lat="55.610912" lon="13.011808"><ele>10.8</ele><time>2026-09-25T10:03:17.000Z</time></trkpt>
      <trkpt lat="55.610944" lon="13.011841"><ele>10.6</ele><time>2026-09-25T10:03:18.000Z</time></trkpt>
      <trkpt lat="55.610975" lon="13.011878"><ele>10.5</ele><time>2026-09-25T10:03:19.000Z</time></trkpt>
      <trkpt lat="55.610996" lon="13.011920"><ele>10.4</ele><time>2026-09-25T10:03:20.000Z</time></trkpt>
      <trkpt lat="55.611033" lon="13.011951"><ele>10.2</ele><time>2026-09-25T10:03:21.000Z</time></trkpt>
      <trkpt lat="55.611056" lon="13.011981"><ele>10.1</ele><time>2026-09-25T10:03:22.000Z</time></trkpt>
      <trkpt lat="55.611084" lon="13.012027"><ele>10.0</ele><time>2026-09-25T10:03:23.000Z</time></trkpt>
      <trkpt lat="55.611118" lon="13.012067"><ele>9.9</ele><time>2026-09-25T10:03:24.000Z</time></trkpt>
      <trkpt lat="55.611143" lon="13.012098"><ele>9.8</ele><time>2026-09-25T10:03:25.000Z</time></trkpt>
      <trkpt lat="55.611182" lon="13.012141"><ele>9.7</ele><time>2026-09-25T10:03:26.000Z</time></trkpt>
      <trkpt lat="55.611216" lon="13.012187"><ele>9.6</ele><time>2026-09-25T10:03:27.000Z</time></trkpt>
      <trkpt lat="55.611237" lon="13.012222"><ele>9.5</ele><time>2026-09-25T10:03:28.000Z</time></trkpt>
      <trkpt lat="55.611272" lon="13.012262"><ele>9.4</ele><time>2026-09-25T10:03:29.000Z</time></trkpt>
      <trkpt lat="55.611298" lon="13.012307"><ele>9.4</ele><time>2026-09-25T10:03:30.000Z</time></trkpt>
      <trkpt lat="55.611319" lon="13.012348"><ele>9.3</ele><time>2026-09-25T10:03:31.000Z</time></trkpt>
      <trkpt lat="55.611359" lon="13.012396"><ele>9.2</ele><time>2026-09-25T10:03:32.000Z</time></trkpt>
      <trkpt lat="55.611392" lon="13.012430"><ele>9.2</ele><time>2026-09-25T10:03:33.000Z</time></trkpt>
      <trkpt lat="55.611420" lon="13.012466"><ele>9.1</ele><time>2026-09-25T10:03:34.000Z</time></trkpt>
      <trkpt lat="55.611444" lon="13.012513"><ele>9.1</ele><time>2026-09-25T10:03:35.000Z</time></trkpt>
      <trkpt lat="55.611476" lon="13.012560"><ele>9.1</ele><time>2026-09-25T10:03:36.000Z</time></trkpt>
      <trkpt lat="55.611497" lon="13.012610"><ele>9.0</ele><time>2026-09-25T10:03:37.000Z</time></trkpt>
      <trkpt lat="55.611520" lon="13.012654"><ele>9.0</ele><time>2026-09-25T10:03:38.000Z</time></trkpt>
      <trkpt lat="55.611552" lon="13.012689"><ele>9.0</ele><time>2026-09-25T10:03:39.000Z</time></trkpt>
      <trkpt lat="55.611584" lon="13.012728"><ele>9.0</ele><time>2026-09-25T10:03:40.000Z</time></trkpt>
      <trkpt lat="55.611611" lon="13.012763"><ele>9.0</ele><time>2026-09-25T10:03:41.000Z</time></trkpt>
      <trkpt lat="55.611643" lon="13.012810"><ele>9.0</ele><time>2026-09-25T10:03:42.000Z</time></trkpt>
      <trkpt lat="55.611680" lon="13.012844"><ele>9.0</ele><time>2026-09-25T10:03:43.000Z</time></trkpt>
      <trkpt lat="55.611718" lon="13.012892"><ele>9.1</ele><time>2026-09-25T10:03:44.000Z</time></trkpt>
      <trkpt lat="55.611749" lon="13.012942"><ele>9.1</ele><time>2026-09-25T10:03:45.000Z</time></trkpt>
      <trkpt lat="55.611779" lon="13.012984"><ele>9.1</ele><time>2026-09-25T10:03:46.000Z</time></trkpt>
      <trkpt lat="55.611814" lon="13.013031"><ele>9.2</ele><time>2026-09-25T10:03:47.000Z</time></trkpt>
      <trkpt lat="55.611836" lon="13.013073"><ele>9.2</ele><time>2026-09-25T10:03:48.000Z</time></trkpt>
      <trkpt lat="55.611871" lon="13.013104"><ele>9.3</ele><time>2026-09-25T10:03:49.000Z</time></trkpt>
      <trkpt lat="55.611903" lon="13.013136"><ele>9.4</ele><time>2026-09-25T10:03:50.000Z</time></trkpt>
      <trkpt lat="55.611930" lon="13.013185"><ele>9.4</ele><time>2026-09-25T10:03:51.000Z</time></trkpt>
      <trkpt lat="55.611950" lon="13.013228"><ele>9.5</ele><time>2026-09-25T10:03:52.000Z</time></trkpt>
      <trkpt lat="55.611983" lon="13.013275"><ele>9.6</ele><time>2026-09-25T10:03:53.000Z</time></trkpt>
      <trkpt lat="55.612010" lon="13.013318"><ele>9.7</ele><time>2026-09-25T10:03:54.000Z</time></trkpt>
      <trkpt lat="55.612046" lon="13.013366"><ele>9.8</ele><time>2026-09-25T10:03:55.000Z</time></trkpt>
      <trkpt lat="55.612070" lon="13.013401"><ele>9.9</ele><time>2026-09-25T10:03:56.000Z</time></trkpt>
      <trkpt lat="55.612097" lon="13.013435"><ele>10.0</ele><time>2026-09-25T10:03:57.000Z</time></trkpt>
      <trkpt lat="55.612119" lon="13.013484"><ele>10.1</ele><time>2026-09-25T10:03:58.000Z</time></trkpt>
      <trkpt lat="55.612150" lon="13.013531"><ele>10.3</ele><time>2026-09-25T10:03:59.000Z</time></trkpt>
      <trkpt lat="55.612184" lon="13.013563"><ele>10.4</ele><time>2026-09-25T10:04:00.000Z</time></trkpt>
      <trkpt lat="55.612222" lon="13.013595"><ele>10.5</ele><time>2026-09-25T10:04:01.000Z</time></trkpt>
      <trkpt lat="55.612254" lon="13.013631"><ele>10.7</ele><time>2026-09-25T10:04:02.000Z</time></trkpt>
      <trkpt lat="55.612275" lon="13.013678"><ele>10.8</ele><time>2026-09-25T10:04:03.000Z</time></trkpt>
      <trkpt lat="55.612297" lon="13.013721"><ele>10.9</ele><time>2026-09-25T10:04:04.000Z</time></trkpt>
      <trkpt lat="55.612335" lon="13.013763"><ele>11.1</ele><time>2026-09-25T10:04:05.000Z</time></trkpt>
      <trkpt lat="55.612374" lon="13.013810"><ele>11.2</ele><time>2026-09-25T10:04:06.000Z</time></trkpt>
      <trkpt lat="55.612402" lon="13.013849"><ele>11.4</ele><time>2026-09-25T10:04:07.000Z</time></trkpt>
      <trkpt lat="55.612427" lon="13.013894"><ele>11.5</ele><time>2026-09-25T10:04:08.000Z</time></trkpt>
      <trkpt lat="55.612453" lon="13.013934"><ele>11.7</ele><time>2026-09-25T10:04:09.000Z</time></trkpt>
      <trkpt lat="55.612476" lon="13.013976"><ele>11.8</ele><time>2026-09-25T10:04:10.000Z</time></trkpt>
      <trkpt lat="55.612497" lon="13.014012"><ele>12.0</ele><time>2026-09-25T10:04:11.000Z</time></trkpt>
      <trkpt lat="55.612530" lon="13.014045"><ele>12.1</ele><time>2026-09-25T10:04:12.000Z</time></trkpt>
      <trkpt lat="55.612563" lon="13.014075"><ele>12.3</ele><time>2026-09-25T10:04:13.000Z</time></trkpt>
      <trkpt lat="55.612603" lon="13.014119"><ele>12.4</ele><time>2026-09-25T10:04:14.000Z</time></trkpt>
      <trkpt lat="55.612635" lon="13.014153"><ele>12.5</ele><time>2026-09-25T10:04:15.000Z</time></trkpt>
      <trkpt lat="55.612666" lon="13.014189"><ele>12.7</ele><time>2026-09-25T10:04:16.000Z</time></trkpt>
      <trkpt lat="55.612690" lon="13.014220"><ele>12.8</ele><time>2026-09-25T10:04:17.000Z</time></trkpt>
      <trkpt lat="55.612717" lon="13.014259"><ele>13.0</ele><time>2026-09-25T10:04:18.000Z</time></trkpt>
      <trkpt lat="55.612751" lon="13.014305"><ele>13.1</ele><time>2026-09-25T10:04:19.000Z</time></trkpt>
      <trkpt lat="55.612789" lon="13.014354"><ele>13.3</ele><time>2026-09-25T10:04:20.000Z</time></trkpt>
      <trkpt lat="55.612817" lon="13.014399"><ele>13.4</ele><time>2026-09-25T10:04:21.000Z</time></trkpt>
      <trkpt lat="55.612853" lon="13.014435"><ele>13.5</ele><time>2026-09-25T10:04:22.000Z</time></trkpt>
      <trkpt lat="55.612883" lon="13.014471"><ele>13.7</ele><time>2026-09-25T10:04:23.000Z</time></trkpt>
      <trkpt lat="55.612920" lon="13.014519"><ele>13.8</ele><time>2026-09-25T10:04:24.000Z</time></trkpt>
      <trkpt lat="55.612957" lon="13.014550"><ele>13.9</ele><time>2026-09-25T10:04:25.000Z</time></trkpt>
      <trkpt lat="55.612987" lon="13.014587"><ele>14.0</ele><time>2026-09-25T10:04:26.000Z</time></trkpt>
      <trkpt lat="55.613013" lon="13.014631"><ele>14.1</ele><time>2026-09-25T10:04:27.000Z</time></trkpt>
      <trkpt lat="55.613039" lon="13.014677"><ele>14.2</ele><time>2026-09-25T10:04:28.000Z</time></trkpt>
      <trkpt lat="55.613060" lon="13.014708"><ele>14.3</ele><time>2026-09-25T10:04:29.000Z</time></trkpt>
      <trkpt lat="55.613087" lon="13.014757"><ele>14.4</ele><time>2026-09-25T10:04:30.000Z</time></trkpt>
      <trkpt lat="55.613109" lon="13.014794"><ele>14.5</ele><time>2026-09-25T10:04:31.000Z</time></trkpt>
      <trkpt lat="55.613139" lon="13.014831"><ele>14.6</ele><time>2026-09-25T10:04:32.000Z</time></trkpt>
      <trkpt lat="55.613170" lon="13.014876"><ele>14.7</ele><time>2026-09-25T10:04:33.000Z</time></trkpt>
      <trkpt lat="55.613208" lon="13.014920"><ele>14.7</ele><time>2026-09-25T10:04:34.000Z</time></trkpt>
      <trkpt lat="55.613234" lon="13.014960"><ele>14.8</ele><time>2026-09-25T10:04:35.000Z</time></trkpt>
      <trkpt lat="55.613264" lon="13.015001"><ele>14.8</ele><time>2026-09-25T10:04:36.000Z</time></trkpt>
      <trkpt lat="55.613301" lon="13.015037"><ele>14.9</ele><time>2026-09-25T10:04:37.000Z</time></trkpt>
      <trkpt lat="55.613332" lon="13.015080"><ele>14.9</ele><time>2026-09-25T10:04:38.000Z</time></trkpt>
      <trkpt lat="55.613357" lon="13.015123"><ele>14.9</ele><time>2026-09-25T10:04:39.000Z</time></trkpt>
      <trkpt lat="55.613381" lon="13.015160"><ele>15.0</ele><time>2026-09-25T10:04:40.000Z</time></trkpt>
      <trkpt lat="55.613412" lon="13.015198"><ele>15.0</ele><time>2026-09-25T10:04:41.000Z</time></trkpt>
      <trkpt lat="55.613450" lon="13.015239"><ele>15.0</ele><time>2026-09-25T10:04:42.000Z</time></trkpt>
      <trkpt lat="55.613476" lon="13.015278"><ele>15.0</ele><time>2026-09-25T10:04:43.000Z</time></trkpt>
      <trkpt lat="55.613516" lon="13.015310"><ele>15.0</ele><time>2026-09-25T10:04:44.000Z</time></trkpt>
      <trkpt lat="55.613541" lon="13.015353"><ele>15.0</ele><time>2026-09-25T10:04:45.000Z</time></trkpt>
      <trkpt lat="55.613576" lon="13.015385"><ele>15.0</ele><time>2026-09-25T10:04:46.000Z</time></trkpt>
      <trkpt lat="55.613605" lon="13.015415"><ele>14.9</ele><time>2026-09-25T10:04:47.000Z</time></trkpt>
      <trkpt lat="55.613641" lon="13.015458"><ele>14.9</ele><time>2026-09-25T10:04:48.000Z</time></trkpt>
      <trkpt lat="55.613664" lon="13.015504"><ele>14.9</ele><time>2026-09-25T10:04:49.000Z</time></trkpt>
      <trkpt lat="55.613694" lon="13.015547"><ele>14.8</ele><time>2026-09-25T10:04:50.000Z</time></trkpt>
      <trkpt lat="55.613722" lon="13.015591"><ele>14.7</ele><time>2026-09-25T10:04:51.000Z</time></trkpt>
      <trkpt lat="55.613754" lon="13.015633"><ele>14.7</ele><time>2026-09-25T10:04:52.000Z</time></trkpt>
      <trkpt lat="55.613775" lon="13.015677"><ele>14.6</ele><time>2026-09-25T10:04:53.000Z</time></trkpt>
      <trkpt lat="55.613808" lon="13.015720"><ele>14.5</ele><time>2026-09-25T10:04:54.000Z</time></trkpt>
      <trkpt lat="55.613846" lon="13.015764"><ele>14.5</ele><time>2026-09-25T10:04:55.000Z</time></trkpt>
      <trkpt lat="55.613881" lon="13.015794"><ele>14.4</ele><time>2026-09-25T10:04:56.000Z</time></trkpt>
      <trkpt lat="55.613905" lon="13.015837"><ele>14.3</ele><time>2026-09-25T10:04:57.000Z</time></trkpt>
      <trkpt lat="55.613935" lon="13.015876"><ele>14.2</ele><time>2026-09-25T10:04:58.000Z</time></trkpt>
      <trkpt lat="55.613972" lon="13.015907"><ele>14.1</ele><time>2026-09-25T10:04:59.000Z</time></trkpt>
    </trkseg>
  </trk>
</gpx>
